{
  "type": "FeatureCollection",
  "features": [
    {
      "type": "Feature",
      "geometry": {
        "type": "MultiLineString",
        "coordinates": [
          [
            [
              120.720311,
              15.064328
            ],
            [
              120.720303,
              15.06425
            ],
            [
              120.720294,
              15.064196
            ],
            [
              120.720278,
              15.064055
            ],
            [
              120.720211,
              15.063545
            ],
            [
              120.720224,
              15.063448
            ],
            [
              120.72015,
              15.063051
            ],
            [
              120.72013,
              15.062913
            ],
            [
              120.720119,
              15.062851
            ],
            [
              120.720073,
              15.06264
            ],
            [
              120.719924,
              15.061869
            ],
            [
              120.719857,
              15.061574
            ],
            [
              120.719786,
              15.061333
            ],
            [
              120.719689,
              15.061099
            ],
            [
              120.71967,
              15.061066
            ],
            [
              120.719562,
              15.06089
            ],
            [
              120.719518,
              15.060824
            ],
            [
              120.719419,
              15.060691
            ],
            [
              120.719292,
              15.060503
            ],
            [
              120.719264,
              15.060454
            ],
            [
              120.719207,
              15.060333
            ],
            [
              120.719037,
              15.059908
            ],
            [
              120.71885,
              15.059381
            ],
            [
              120.71864,
              15.058821
            ],
            [
              120.718522,
              15.058599
            ],
            [
              120.718376,
              15.058411
            ],
            [
              120.718192,
              15.058214
            ],
            [
              120.718139,
              15.058167
            ],
            [
              120.717643,
              15.057738
            ],
            [
              120.717194,
              15.057356
            ],
            [
              120.717044,
              15.057227
            ],
            [
              120.716925,
              15.057125
            ],
            [
              120.716899,
              15.057105
            ],
            [
              120.716794,
              15.057023
            ],
            [
              120.716479,
              15.056809
            ],
            [
              120.716289,
              15.056697
            ],
            [
              120.716117,
              15.056608
            ],
            [
              120.715808,
              15.056459
            ],
            [
              120.715334,
              15.05625
            ],
            [
              120.714637,
              15.055917
            ],
            [
              120.714425,
              15.055814
            ],
            [
              120.713399,
              15.055319
            ],
            [
              120.712859,
              15.055003
            ],
            [
              120.71252,
              15.054781
            ],
            [
              120.712412,
              15.054705
            ],
            [
              120.7123,
              15.054644
            ],
            [
              120.712266,
              15.054619
            ],
            [
              120.712114,
              15.054507
            ],
            [
              120.712005,
              15.054435
            ],
            [
              120.711947,
              15.054387
            ],
            [
              120.711416,
              15.054026
            ],
            [
              120.711281,
              15.053942
            ],
            [
              120.711183,
              15.053881
            ],
            [
              120.711025,
              15.053776
            ],
            [
              120.711008,
              15.053765
            ],
            [
              120.710619,
              15.053515
            ],
            [
              120.710206,
              15.053287
            ],
            [
              120.709857,
              15.05313
            ],
            [
              120.709676,
              15.053056
            ],
            [
              120.709648,
              15.053039
            ],
            [
              120.709588,
              15.053012
            ],
            [
              120.709507,
              15.052975
            ],
            [
              120.70937,
              15.052918
            ],
            [
              120.708821,
              15.052736
            ],
            [
              120.708761,
              15.052716
            ],
            [
              120.708535,
              15.052648
            ],
            [
              120.708335,
              15.052591
            ],
            [
              120.708256,
              15.052572
            ],
            [
              120.708229,
              15.052567
            ],
            [
              120.707147,
              15.052284
            ],
            [
              120.707015,
              15.052252
            ],
            [
              120.706866,
              15.052215
            ],
            [
              120.706578,
              15.052129
            ],
            [
              120.706318,
              15.052051
            ],
            [
              120.706213,
              15.052019
            ],
            [
              120.705541,
              15.051853
            ],
            [
              120.704913,
              15.051702
            ],
            [
              120.70483,
              15.051677
            ],
            [
              120.704661,
              15.051634
            ],
            [
              120.70455,
              15.051607
            ],
            [
              120.704462,
              15.051584
            ],
            [
              120.704378,
              15.051563
            ],
            [
              120.704276,
              15.051538
            ],
            [
              120.704172,
              15.051514
            ],
            [
              120.703993,
              15.05148
            ],
            [
              120.703841,
              15.051449
            ],
            [
              120.703662,
              15.051415
            ],
            [
              120.70349,
              15.051382
            ],
            [
              120.703312,
              15.051358
            ],
            [
              120.703051,
              15.05135
            ],
            [
              120.702884,
              15.051344
            ],
            [
              120.702758,
              15.051335
            ],
            [
              120.702546,
              15.051321
            ],
            [
              120.702324,
              15.051309
            ],
            [
              120.702136,
              15.051303
            ],
            [
              120.701835,
              15.051298
            ],
            [
              120.701514,
              15.051306
            ],
            [
              120.701194,
              15.051317
            ],
            [
              120.701061,
              15.05132
            ],
            [
              120.700717,
              15.051327
            ],
            [
              120.700588,
              15.05133
            ],
            [
              120.700443,
              15.051333
            ],
            [
              120.700328,
              15.051334
            ],
            [
              120.700014,
              15.051338
            ],
            [
              120.699965,
              15.051339
            ],
            [
              120.699844,
              15.05134
            ],
            [
              120.699682,
              15.05143
            ],
            [
              120.699438,
              15.051499
            ],
            [
              120.69933,
              15.051502
            ],
            [
              120.698852,
              15.05152
            ]
          ]
        ]
      },
      "properties": {
        "variant_code": "PILOT-ARAYAT-SF-MEXICO-BAYAN-SM-OUT",
        "candidate_only": true,
        "provider": "GEOAPIFY",
        "routing_mode": "drive",
        "routing_type": "balanced",
        "traffic_model": "free_flow",
        "generated_at": "2026-10-05T00:46:31.249Z",
        "request_id": "0863eb0c-a1dc-4868-b8aa-1501a376ee8f",
        "direction": "OUTBOUND",
        "origin_node_code": "RCH-MEXICO-BAYAN-STA-MONICA-TRANSFER",
        "destination_node_code": "RCH-SM-PAMPANGA-MAIN-GATE-DROPOFF",
        "origin_coordinates": [
          120.72025022065026,
          15.064333794084051
        ],
        "destination_coordinates": [
          120.69885494898818,
          15.05158520927461
        ],
        "provider_reported_distance_m": 3013,
        "provider_reported_duration_s": 194.082,
        "geometry_measured_distance_m": 3006.7836757819987,
        "measured_minus_provider_distance_m": -6.2163242180013185,
        "measured_difference_percent": -0.20631676793897505,
        "origin_road_snap_gap_m": 6.5578268603576735,
        "destination_road_snap_gap_m": 7.257851850821057,
        "disconnected_geometry_gap_m": 0,
        "review_status": "PENDING_MANUAL_REVIEW",
        "warnings": [
          "Endpoint-only passenger-car route; actual jeepney corridor is unconfirmed.",
          "Balanced driving route is not evidence of the fixed jeepney path.",
          "Duration is free-flow driving time; excludes waiting, loading and transit stops.",
          "No intermediate waypoint coordinates supplied or invented.",
          "Road snapping differs from exact nodes: origin 6.56 m; destination 7.26 m. Gaps are not added to fare distance.",
          "Inspect possibly unsuitable road classes/access: service_other: SM Loading and Unloading Bay. This is a review flag, not a claim that these roads are forbidden."
        ]
      }
    }
  ]
}
