{
  "type": "FeatureCollection",
  "features": [
    {
      "type": "Feature",
      "geometry": {
        "type": "MultiLineString",
        "coordinates": [
          [
            [
              120.698301,
              15.128041
            ],
            [
              120.698316,
              15.128007
            ],
            [
              120.698344,
              15.127944
            ],
            [
              120.69848,
              15.127563
            ],
            [
              120.698863,
              15.126604
            ],
            [
              120.699391,
              15.125249
            ],
            [
              120.699814,
              15.12421
            ],
            [
              120.700314,
              15.122921
            ],
            [
              120.700552,
              15.122328
            ],
            [
              120.700674,
              15.122038
            ],
            [
              120.700949,
              15.121267
            ],
            [
              120.700997,
              15.121149
            ],
            [
              120.701042,
              15.120993
            ],
            [
              120.701113,
              15.120751
            ],
            [
              120.701137,
              15.120673
            ],
            [
              120.70116,
              15.120607
            ],
            [
              120.701187,
              15.120545
            ],
            [
              120.701237,
              15.120485
            ],
            [
              120.701275,
              15.120457
            ],
            [
              120.701532,
              15.120305
            ],
            [
              120.702483,
              15.119528
            ],
            [
              120.703141,
              15.118933
            ],
            [
              120.703183,
              15.118891
            ],
            [
              120.70321,
              15.118857
            ],
            [
              120.703216,
              15.118827
            ],
            [
              120.703205,
              15.118797
            ],
            [
              120.70318,
              15.11876
            ],
            [
              120.702566,
              15.11789
            ],
            [
              120.702468,
              15.117747
            ],
            [
              120.702443,
              15.117671
            ],
            [
              120.702436,
              15.1176
            ],
            [
              120.702442,
              15.117518
            ],
            [
              120.702457,
              15.117439
            ],
            [
              120.702492,
              15.117332
            ],
            [
              120.702519,
              15.117266
            ],
            [
              120.702667,
              15.116856
            ],
            [
              120.702924,
              15.116214
            ],
            [
              120.703011,
              15.115984
            ],
            [
              120.703023,
              15.115958
            ],
            [
              120.7031,
              15.115777
            ],
            [
              120.703262,
              15.115383
            ],
            [
              120.703365,
              15.115102
            ],
            [
              120.703471,
              15.114867
            ],
            [
              120.703495,
              15.114799
            ],
            [
              120.703919,
              15.113748
            ],
            [
              120.704034,
              15.113447
            ],
            [
              120.704068,
              15.113359
            ],
            [
              120.70508,
              15.110768
            ],
            [
              120.705435,
              15.109869
            ],
            [
              120.706033,
              15.108367
            ],
            [
              120.70616,
              15.108089
            ],
            [
              120.706663,
              15.106798
            ],
            [
              120.706772,
              15.106495
            ],
            [
              120.706806,
              15.106417
            ],
            [
              120.706862,
              15.10627
            ],
            [
              120.707428,
              15.104855
            ],
            [
              120.707627,
              15.104344
            ],
            [
              120.70814,
              15.103038
            ],
            [
              120.708625,
              15.101767
            ],
            [
              120.708904,
              15.101121
            ],
            [
              120.709379,
              15.099891
            ],
            [
              120.709641,
              15.099249
            ],
            [
              120.709834,
              15.09873
            ],
            [
              120.710413,
              15.09729
            ],
            [
              120.710683,
              15.096593
            ],
            [
              120.710802,
              15.096253
            ],
            [
              120.710863,
              15.096088
            ],
            [
              120.710933,
              15.095892
            ],
            [
              120.711031,
              15.095684
            ],
            [
              120.711102,
              15.095532
            ],
            [
              120.711173,
              15.095353
            ],
            [
              120.711357,
              15.094871
            ],
            [
              120.711463,
              15.09461
            ],
            [
              120.711512,
              15.094488
            ],
            [
              120.711576,
              15.094332
            ],
            [
              120.711665,
              15.094103
            ],
            [
              120.71192,
              15.093423
            ],
            [
              120.712142,
              15.092877
            ],
            [
              120.712497,
              15.091938
            ],
            [
              120.712559,
              15.091798
            ],
            [
              120.712779,
              15.091267
            ],
            [
              120.714345,
              15.087302
            ],
            [
              120.714419,
              15.087095
            ],
            [
              120.714657,
              15.086487
            ],
            [
              120.714774,
              15.086161
            ],
            [
              120.714984,
              15.085657
            ],
            [
              120.715323,
              15.084777
            ],
            [
              120.71537,
              15.084654
            ],
            [
              120.715754,
              15.083686
            ],
            [
              120.716103,
              15.082816
            ],
            [
              120.716308,
              15.082294
            ],
            [
              120.716376,
              15.082121
            ],
            [
              120.716823,
              15.080932
            ],
            [
              120.717057,
              15.080373
            ],
            [
              120.717715,
              15.078705
            ],
            [
              120.717818,
              15.078444
            ],
            [
              120.717957,
              15.078114
            ],
            [
              120.718007,
              15.077986
            ],
            [
              120.718244,
              15.07736
            ],
            [
              120.718563,
              15.076525
            ],
            [
              120.718669,
              15.076246
            ],
            [
              120.718899,
              15.075677
            ],
            [
              120.719081,
              15.075214
            ],
            [
              120.719194,
              15.074906
            ],
            [
              120.71941,
              15.074373
            ],
            [
              120.71944,
              15.074297
            ],
            [
              120.719649,
              15.073746
            ],
            [
              120.719775,
              15.073409
            ],
            [
              120.719877,
              15.073167
            ],
            [
              120.719929,
              15.073046
            ],
            [
              120.720006,
              15.072833
            ],
            [
              120.720178,
              15.072426
            ],
            [
              120.720191,
              15.072388
            ],
            [
              120.720716,
              15.071019
            ],
            [
              120.721031,
              15.070241
            ],
            [
              120.721497,
              15.069071
            ],
            [
              120.721603,
              15.068825
            ],
            [
              120.721757,
              15.068492
            ],
            [
              120.721791,
              15.068357
            ],
            [
              120.72179,
              15.068251
            ],
            [
              120.721782,
              15.068202
            ],
            [
              120.721765,
              15.068143
            ],
            [
              120.72173,
              15.068065
            ],
            [
              120.721659,
              15.067946
            ],
            [
              120.721506,
              15.067759
            ],
            [
              120.721388,
              15.067627
            ],
            [
              120.72124,
              15.067438
            ],
            [
              120.721204,
              15.067387
            ],
            [
              120.721129,
              15.067277
            ],
            [
              120.721059,
              15.067153
            ],
            [
              120.721027,
              15.067103
            ],
            [
              120.720743,
              15.066387
            ],
            [
              120.720615,
              15.066064
            ],
            [
              120.720514,
              15.065814
            ],
            [
              120.720495,
              15.06573
            ],
            [
              120.720387,
              15.065238
            ],
            [
              120.720347,
              15.064889
            ],
            [
              120.720346,
              15.064749
            ],
            [
              120.720348,
              15.064659
            ],
            [
              120.72036,
              15.064603
            ],
            [
              120.720375,
              15.064564
            ],
            [
              120.720338,
              15.064522
            ],
            [
              120.720324,
              15.064468
            ],
            [
              120.720311,
              15.064328
            ]
          ]
        ]
      },
      "properties": {
        "variant_code": "PILOT-PSU-MEXICO-BAYAN-TRICYCLE-OUT",
        "candidate_only": true,
        "provider": "GEOAPIFY",
        "routing_mode": "drive",
        "routing_type": "balanced",
        "traffic_model": "free_flow",
        "generated_at": "2026-10-05T00:46:31.249Z",
        "request_id": "89813f2c-8193-44e6-be14-8e3b93d3d9a4",
        "direction": "OUTBOUND",
        "origin_node_code": "RCH-PSU-MEXICO-FRONT",
        "destination_node_code": "RCH-MEXICO-BAYAN-STA-MONICA-TRANSFER",
        "origin_coordinates": [
          120.69826461388278,
          15.128026422211173
        ],
        "destination_coordinates": [
          120.72025022065026,
          15.064333794084051
        ],
        "provider_reported_distance_m": 7696,
        "provider_reported_duration_s": 696.418,
        "geometry_measured_distance_m": 7687.474760052879,
        "measured_minus_provider_distance_m": -8.525239947121008,
        "measured_difference_percent": -0.11077494733785094,
        "origin_road_snap_gap_m": 4.228754428004347,
        "destination_road_snap_gap_m": 6.5578268603576735,
        "disconnected_geometry_gap_m": 0,
        "review_status": "PENDING_MANUAL_REVIEW",
        "warnings": [
          "Endpoint-only passenger-car route; actual tricycle corridor is unconfirmed.",
          "Balanced driving route is not evidence of the actual tricycle path.",
          "Duration is free-flow driving time; excludes waiting, loading and transit stops.",
          "No intermediate waypoint coordinates supplied or invented.",
          "Road snapping differs from exact nodes: origin 4.23 m; destination 6.56 m. Gaps are not added to fare distance."
        ]
      }
    }
  ]
}
